NORAD_CAT_ID,OBJECT_NAME,OBJECT_TYPE,EPOCH,MEAN_MOTION,ECCENTRICITY,INCLINATION,RA_OF_ASC_NODE,ARG_OF_PERICENTER,MEAN_ANOMALY,BSTAR,MEAN_MOTION_DOT,MEAN_MOTION_DDOT,TLE_LINE0,TLE_LINE1,TLE_LINE2,SEMIMAJOR_AXIS,PERIOD,APOGEE,PERIGEE,DECAYED
51887.0,STARLINK-3551,PAYLOAD,2022-11-05 11:37:17,15.08832086,0.0001322,53.2178,76.8397,41.9218,318.1875,-1.8547e-05,-5.83e-06,0.0,0 STARLINK-3551,1 51887U 22022AM  22309.48422968 -.00000583  00000-0 -18547-4 0  9993,2 51887  53.2178  76.8397 0001322  41.9218 318.1875 15.08832086 39039,6917.905,95.438,540.684,538.855,0.0
51887.0,STARLINK-3551,PAYLOAD,2022-11-05 17:58:50,15.08826202,0.0001891,53.2175,75.6536,47.0952,313.0199,-8.0016e-05,-1.561e-05,0.0,0 STARLINK-3551,1 51887U 22022AM  22309.74919860 -.00001561  00000-0 -80016-4 0  9991,2 51887  53.2175  75.6536 0001891  47.0952 313.0199 15.08826202 39071,6917.9230000000025,95.438,541.096,538.479,0.0
51887.0,STARLINK-3551,PAYLOAD,2022-11-06 11:28:04,15.08831727,0.0001935,53.2172,72.3831,39.6314,320.482,4.493300000000001e-05,4.27e-06,0.0,0 STARLINK-3551,1 51887U 22022AM  22310.47783232  .00000427  00000-0  44933-4 0  9991,2 51887  53.2172  72.3831 0001935  39.6314 320.4820 15.08831727 39181,6917.906,95.438,541.109,538.432,0.0
51887.0,STARLINK-3551,PAYLOAD,2022-11-07 12:54:15,15.08834993,0.000195,53.2173,67.6251,43.1132,317.0012,1.5424e-05,-4.3e-07,0.0,0 STARLINK-3551,1 51887U 22022AM  22311.53767649 -.00000043  00000-0  15424-4 0  9991,2 51887  53.2173  67.6251 0001950  43.1132 317.0012 15.08834993 39341,6917.896,95.438,541.11,538.4119999999998,0.0
51887.0,STARLINK-3551,PAYLOAD,2022-11-07 19:15:47,15.08836863,0.0001901,53.2178,66.436,35.8807,324.2313,0.00021433,3.124e-05,0.0,0 STARLINK-3551,1 51887U 22022AM  22311.80263129  .00003124  00000-0  21433-3 0  9993,2 51887  53.2178  66.4360 0001901  35.8807 324.2313 15.08836863 39383,6917.89,95.438,541.07,538.44,0.0
51887.0,STARLINK-3551,PAYLOAD,2022-11-08 07:58:51,15.08851825,0.0001932,53.2176,64.0572,34.4187,325.693,0.00025056,3.703e-05,0.0,0 STARLINK-3551,1 51887U 22022AM  22312.33253903  .00003703  00000-0  25056-3 0  9999,2 51887  53.2176  64.0572 0001932  34.4187 325.6930 15.08851825 39464,6917.844,95.437,541.0459999999998,538.373,0.0
51887.0,STARLINK-3551,PAYLOAD,2022-11-08 09:34:14,15.08852128,0.0001849,53.2179,63.7593,38.2831,321.8292,0.00027726,4.129e-05,0.0,0 STARLINK-3551,1 51887U 22022AM  22312.39877850  .00004129  00000-0  27726-3 0  9997,2 51887  53.2179  63.7593 0001849  38.2831 321.8292 15.08852128 39478,6917.843000000003,95.437,540.987,538.429,0.0
51887.0,STARLINK-3551,PAYLOAD,2022-11-09 12:35:47,15.08838378,0.0002139,53.2178,58.7042,28.337,331.7738,-0.00012296,-2.245e-05,0.0,0 STARLINK-3551,1 51887U 22022AM  22313.52486055 -.00002245  00000-0 -12296-3 0  9991,2 51887  53.2178  58.7042 0002139  28.3370 331.7738 15.08838378 39646,6917.885,95.438,541.23,538.271,0.0
51887.0,STARLINK-3551,PAYLOAD,2022-11-09 15:46:35,15.08803822,0.0002119,53.2171,58.108,31.3951,328.7167,-0.00061719,-0.00010088,0.0,0 STARLINK-3551,1 51887U 22022AM  22313.65736097 -.00010088  00000-0 -61719-3 0  9997,2 51887  53.2171  58.1080 0002119  31.3951 328.7167 15.08803822 39662,6917.991,95.44,541.322,538.39,0.0
51887.0,STARLINK-3551,PAYLOAD,2022-11-09 23:43:31,15.08818807,0.0001802,53.2179,56.6228,35.958,324.1533,-0.00044074,-7.292e-05,0.0,0 STARLINK-3551,1 51887U 22022AM  22313.98855573 -.00007292  00000-0 -44074-3 0  9992,2 51887  53.2179  56.6228 0001802  35.9580 324.1533 15.08818807 39715,6917.945,95.439,541.057,538.564,0.0
51887.0,STARLINK-3551,PAYLOAD,2022-11-10 12:26:36,15.08831719,0.000216,53.2168,54.243,27.6954,332.4153,-0.00021944,-3.778e-05,0.0,0 STARLINK-3551,1 51887U 22022AM  22314.51847296 -.00003778  00000-0 -21944-3 0  9991,2 51887  53.2168  54.2430 0002160  27.6954 332.4153 15.08831719 39798,6917.906,95.438,541.265,538.276,0.0
51887.0,STARLINK-3551,PAYLOAD,2022-11-10 17:12:45,15.08836974,0.0002001,53.2169,53.3504,34.6068,325.5054,-8.7916e-05,-1.687e-05,0.0,0 STARLINK-3551,1 51887U 22022AM  22314.71718975 -.00001687  00000-0 -87916-4 0  9993,2 51887  53.2169  53.3504 0002001  34.6068 325.5054 15.08836974 39824,6917.89,95.438,541.139,538.37,0.0
51887.0,STARLINK-3551,PAYLOAD,2022-11-10 18:48:08,15.08834133,0.0001996,53.2172,53.0535,38.0732,322.0401,3.3376e-05,2.43e-06,0.0,0 STARLINK-3551,1 51887U 22022AM  22314.78343283  .00000243  00000-0  33376-4 0  9992,2 51887  53.2172  53.0535 0001996  38.0732 322.0401 15.08834133 39831,6917.898,95.438,541.144,538.383,0.0
51887.0,STARLINK-3551,PAYLOAD,2022-11-10 23:34:18,15.08824715,0.0002049,53.2174,52.1617,40.3266,319.7878,0.00013062,1.7899999999999998e-05,0.0,0 STARLINK-3551,1 51887U 22022AM  22314.98215985  .00001790  00000-0  13062-3 0  9998,2 51887  53.2174  52.1617 0002049  40.3266 319.7878 15.08824715 39861,6917.927,95.439,541.21,538.375,0.0
51887.0,STARLINK-3551,PAYLOAD,2022-11-11 12:17:24,15.0882506,0.0002177,53.2171,49.7832,36.9871,323.1271,0.00027703,4.122e-05,0.0,0 STARLINK-3551,1 51887U 22022AM  22315.51208735  .00004122  00000-0  27703-3 0  9992,2 51887  53.2171  49.7832 0002177  36.9871 323.1271 15.08825060 39943,6917.926,95.438,541.297,538.285,0.0
51887.0,STARLINK-3551,PAYLOAD,2022-11-11 18:38:56,15.0884565,0.0002136,53.217,48.5938,38.9604,321.1541,0.00089751,0.00014027,0.0,0 STARLINK-3551,1 51887U 22022AM  22315.77704603  .00014027  00000-0  89751-3 0  9991,2 51887  53.2170  48.5938 0002136  38.9604 321.1541 15.08845650 39986,6917.863,95.437,541.206,538.25,0.0
51887.0,STARLINK-3551,PAYLOAD,2022-11-12 10:32:48,15.088494400000002,0.0002174,53.217,45.6204,41.0881,319.0274,0.00056094,8.653e-05,0.0,0 STARLINK-3551,1 51887U 22022AM  22316.43944476  .00008653  00000-0  56094-3 0  9991,2 51887  53.2170  45.6204 0002174  41.0881 319.0274 15.08849440 40087,6917.852,95.437,541.22,538.2130000000002,0.0
51887.0,STARLINK-3551,PAYLOAD,2022-11-12 18:29:43,15.08859102,0.0002201,53.2169,44.1335,40.4815,319.6341,0.00063945,9.909e-05,0.0,0 STARLINK-3551,1 51887U 22022AM  22316.77064002  .00009909  00000-0  63945-3 0  9994,2 51887  53.2169  44.1335 0002201  40.4815 319.6341 15.08859102 40138,6917.821999999999,95.436,541.21,538.164,0.0
51887.0,STARLINK-3551,PAYLOAD,2022-11-13 11:58:58,15.088302800000005,0.0002397,53.2176,40.8648,17.059,343.0482,-0.00044264,-7.324e-05,0.0,0 STARLINK-3551,1 51887U 22022AM  22317.49928287 -.00007324  00000-0 -44264-3 0  9992,2 51887  53.2176  40.8648 0002397  17.0590 343.0482 15.08830280 40247,6917.91,95.438,541.433,538.117,0.0
51887.0,STARLINK-3551,PAYLOAD,2022-11-13 15:09:44,15.08832162,0.0002134,53.2169,40.2678,34.2603,325.8526,-0.00022428,-3.855e-05,0.0,0 STARLINK-3551,1 51887U 22022AM  22317.63176460 -.00003855  00000-0 -22428-3 0  9999,2 51887  53.2169  40.2678 0002134  34.2603 325.8526 15.08832162 40261,6917.904,95.438,541.246,538.293,0.0
51887.0,STARLINK-3551,PAYLOAD,2022-11-14 08:38:59,15.08833396,0.0002117,53.2171,36.9971,33.7678,326.3449,0.00021523,3.138e-05,0.0,0 STARLINK-3551,1 51887U 22022AM  22318.36041068  .00003138  00000-0  21523-3 0  9992,2 51887  53.2171  36.9971 0002117  33.7678 326.3449 15.08833396 40371,6917.901,95.438,541.23,538.3009999999998,0.0
51887.0,STARLINK-3551,PAYLOAD,2022-11-14 11:49:45,15.08829664,0.0002146,53.217,36.4022,30.7006,329.4111,0.00021548,3.142e-05,0.0,0 STARLINK-3551,1 51887U 22022AM  22318.49289306  .00003142  00000-0  21548-3 0  9997,2 51887  53.2170  36.4022 0002146  30.7006 329.4111 15.08829664 40391,6917.9119999999975,95.438,541.262,538.2919999999998,0.0
51887.0,STARLINK-3551,PAYLOAD,2022-11-14 15:00:32,15.08830195,0.0002192,53.2165,35.808,29.1776,330.9338,0.00033508,5.047e-05,0.0,0 STARLINK-3551,1 51887U 22022AM  22318.62537444  .00005047  00000-0  33508-3 0  9996,2 51887  53.2165  35.8080 0002192  29.1776 330.9338 15.08830195 40411,6917.91,95.438,541.2919999999998,538.259,0.0
51887.0,STARLINK-3551,PAYLOAD,2022-11-15 11:40:33,15.08837255,0.0002228,53.2167,31.9414,28.8253,331.2862,0.0003246,4.881e-05,0.0,0 STARLINK-3551,1 51887U 22022AM  22319.48649820  .00004881  00000-0  32460-3 0  9994,2 51887  53.2167  31.9414 0002228  28.8253 331.2862 15.08837255 40541,6917.889,95.438,541.295,538.212,0.0
51887.0,STARLINK-3551,PAYLOAD,2022-11-15 16:26:42,15.08836837,0.0002226,53.2173,31.0495,31.2493,328.8631,0.00031136,4.67e-05,0.0,0 STARLINK-3551,1 51887U 22022AM  22319.68521929  .00004670  00000-0  31136-3 0  9990,2 51887  53.2173  31.0495 0002226  31.2493 328.8631 15.08836837 40574,6917.89,95.438,541.295,538.215,0.0
51887.0,STARLINK-3551,PAYLOAD,2022-11-16 16:17:29,15.08840005,0.00023,53.2176,26.5891,31.684,328.4290000000001,0.00012931,1.77e-05,0.0,0 STARLINK-3551,1 51887U 22022AM  22320.67881860  .00001770  00000-0  12931-3 0  9994,2 51887  53.2176  26.5891 0002300  31.6840 328.4290 15.08840005 40725,6917.88,95.438,541.336,538.154,0.0
51887.0,STARLINK-3551,PAYLOAD,2022-11-17 12:57:30,15.08843316,0.00023,53.2174,22.724,34.7926,325.3216,0.00012199,1.654e-05,0.0,0 STARLINK-3551,1 51887U 22022AM  22321.53993511  .00001654  00000-0  12199-3 0  9994,2 51887  53.2174  22.7240 0002300  34.7926 325.3216 15.08843316 40854,6917.87,95.437,541.326,538.144,0.0
51887.0,STARLINK-3551,PAYLOAD,2022-11-17 14:32:53,15.0884519,0.0002294,53.2173,22.4269,34.0856,326.0283,0.00014842,2.075e-05,0.0,0 STARLINK-3551,1 51887U 22022AM  22321.60617411  .00002075  00000-0  14842-3 0  9999,2 51887  53.2173  22.4269 0002294  34.0856 326.0283 15.08845190 40863,6917.865,95.437,541.316,538.143,0.0
51887.0,STARLINK-3551,PAYLOAD,2022-11-18 11:12:53,15.08843918,0.0002347,53.2173,18.5608,33.7679,326.3463,-3.2706e-06,-3.4e-06,0.0,0 STARLINK-3551,1 51887U 22022AM  22322.46728931 -.00000340  00000-0 -32706-5 0  9990,2 51887  53.2173  18.5608 0002347  33.7679 326.3463 15.08843918 40997,6917.868,95.437,541.357,538.11,0.0
